,Address,Postcode,Phone Number,Description,Website,Facilities,Name,Time-Location,Days,Times,Location,GoogleLoc,ValidGoogleLoc,Latitude,Longitude,Day List
0,"
Emmaus House, 1 Berrymead Gardens
",['W3 8AA'],['02089925768'],Call for the times of their wide range of services.,['http://bit.ly/1rY49Ay'],"Accommodation/housing advice, Alcohol workers, Barber, Benefits advice, Clothing store, Counselling, Dentist, Drugs workers, Food, Foot care, Medical/health",Acton Homeless Concern,"[['Monday-Friday', ' 9am-12pm'], '(refreshments, Damien Centre, 3-5 Church Rd, Acton)']",Monday-Friday, 9am-12pm,"(refreshments, Damien Centre, 3-5 Church Rd, Acton)","{'results': [{'address_components': [{'long_name': '3-5', 'short_name': '3-5', 'types': ['street_number']}, {'long_name': 'Church Road', 'short_name': 'Church Rd', 'types': ['route']}, {'long_name': 'Acton', 'short_name': 'Acton', 'types': ['neighborhood', 'political']}, {'long_name': 'London', 'short_name': 'London', 'types': ['postal_town']}, {'long_name': 'Greater London', 'short_name': 'Greater London', 'types': ['administrative_area_level_2', 'political']}, {'long_name': 'England', 'short_name': 'England', 'types': ['administrative_area_level_1', 'political']}, {'long_name': 'United Kingdom', 'short_name': 'GB', 'types': ['country', 'political']}, {'long_name': 'W3 8PU', 'short_name': 'W3 8PU', 'types': ['postal_code']}], 'formatted_address': '3-5 Church Rd, Acton, London W3 8PU, UK', 'geometry': {'location': {'lat': 51.5070028, 'lng': -0.2711604}, 'location_type': 'ROOFTOP', 'viewport': {'northeast': {'lat': 51.50835178029149, 'lng': -0.2698114197084979}, 'southwest': {'lat': 51.50565381970849, 'lng': -0.272509380291502}}}, 'place_id': 'ChIJIUDpKQUOdkgRObOkqms_OIc', 'plus_code': {'compound_code': 'GP4H+RG Acton, London, United Kingdom', 'global_code': '9C3XGP4H+RG'}, 'types': ['establishment', 'point_of_interest']}], 'status': 'OK'}",True,51.5070028,-0.2711604,"['monday', 'tuesday', 'wednesday', 'thursday']"
0,"
Emmaus House, 1 Berrymead Gardens
",['W3 8AA'],['02089925768'],Call for the times of their wide range of services.,['http://bit.ly/1rY49Ay'],"Accommodation/housing advice, Alcohol workers, Barber, Benefits advice, Clothing store, Counselling, Dentist, Drugs workers, Food, Foot care, Medical/health",Acton Homeless Concern,"[['Monday-Friday', ' 2pm-6pm'], '(refreshments, Damien Centre, 3-5 Church Rd, Acton)']",Monday-Friday, 2pm-6pm,"(refreshments, Damien Centre, 3-5 Church Rd, Acton)","{'results': [{'address_components': [{'long_name': '3-5', 'short_name': '3-5', 'types': ['street_number']}, {'long_name': 'Church Road', 'short_name': 'Church Rd', 'types': ['route']}, {'long_name': 'Acton', 'short_name': 'Acton', 'types': ['neighborhood', 'political']}, {'long_name': 'London', 'short_name': 'London', 'types': ['postal_town']}, {'long_name': 'Greater London', 'short_name': 'Greater London', 'types': ['administrative_area_level_2', 'political']}, {'long_name': 'England', 'short_name': 'England', 'types': ['administrative_area_level_1', 'political']}, {'long_name': 'United Kingdom', 'short_name': 'GB', 'types': ['country', 'political']}, {'long_name': 'W3 8PU', 'short_name': 'W3 8PU', 'types': ['postal_code']}], 'formatted_address': '3-5 Church Rd, Acton, London W3 8PU, UK', 'geometry': {'location': {'lat': 51.5070028, 'lng': -0.2711604}, 'location_type': 'ROOFTOP', 'viewport': {'northeast': {'lat': 51.50835178029149, 'lng': -0.2698114197084979}, 'southwest': {'lat': 51.50565381970849, 'lng': -0.272509380291502}}}, 'place_id': 'ChIJIUDpKQUOdkgRObOkqms_OIc', 'plus_code': {'compound_code': 'GP4H+RG Acton, London, United Kingdom', 'global_code': '9C3XGP4H+RG'}, 'types': ['establishment', 'point_of_interest']}], 'status': 'OK'}",True,51.5070028,-0.2711604,"['monday', 'tuesday', 'wednesday', 'thursday']"
0,"
Emmaus House, 1 Berrymead Gardens
",['W3 8AA'],['02089925768'],Call for the times of their wide range of services.,['http://bit.ly/1rY49Ay'],"Accommodation/housing advice, Alcohol workers, Barber, Benefits advice, Clothing store, Counselling, Dentist, Drugs workers, Food, Foot care, Medical/health",Acton Homeless Concern,"[['Thursday', ' 2:30pm-6pm'], '(refreshments, Damien Centre, 3-5 Church Rd, Acton)']",Thursday, 2:30pm-6pm,"(refreshments, Damien Centre, 3-5 Church Rd, Acton)","{'results': [{'address_components': [{'long_name': '3-5', 'short_name': '3-5', 'types': ['street_number']}, {'long_name': 'Church Road', 'short_name': 'Church Rd', 'types': ['route']}, {'long_name': 'Acton', 'short_name': 'Acton', 'types': ['neighborhood', 'political']}, {'long_name': 'London', 'short_name': 'London', 'types': ['postal_town']}, {'long_name': 'Greater London', 'short_name': 'Greater London', 'types': ['administrative_area_level_2', 'political']}, {'long_name': 'England', 'short_name': 'England', 'types': ['administrative_area_level_1', 'political']}, {'long_name': 'United Kingdom', 'short_name': 'GB', 'types': ['country', 'political']}, {'long_name': 'W3 8PU', 'short_name': 'W3 8PU', 'types': ['postal_code']}], 'formatted_address': '3-5 Church Rd, Acton, London W3 8PU, UK', 'geometry': {'location': {'lat': 51.5070028, 'lng': -0.2711604}, 'location_type': 'ROOFTOP', 'viewport': {'northeast': {'lat': 51.50835178029149, 'lng': -0.2698114197084979}, 'southwest': {'lat': 51.50565381970849, 'lng': -0.272509380291502}}}, 'place_id': 'ChIJIUDpKQUOdkgRObOkqms_OIc', 'plus_code': {'compound_code': 'GP4H+RG Acton, London, United Kingdom', 'global_code': '9C3XGP4H+RG'}, 'types': ['establishment', 'point_of_interest']}], 'status': 'OK'}",True,51.5070028,-0.2711604,thursday
4,"
3A Cazenove Road, Stoke Newington
",['N16 6PA'],['02088064250'],"Mission statement: 'Empowering people, inspiring change. Love is all there is.' Vegetarian food, and music while they distribute.",['http://bit.ly/1wZGBhA'],Food (free),AMURT,"[['Thursday', ' 6:30pm-8pm'], '(Lincoln’s Inn Fields)']",Thursday, 6:30pm-8pm,(Lincoln’s Inn Fields),"{'results': [{'address_components': [{'long_name': 'London', 'short_name': 'London', 'types': ['postal_town']}, {'long_name': 'Holborn', 'short_name': 'Holborn', 'types': ['neighborhood', 'political']}, {'long_name': 'Greater London', 'short_name': 'Greater London', 'types': ['administrative_area_level_2', 'political']}, {'long_name': 'England', 'short_name': 'England', 'types': ['administrative_area_level_1', 'political']}, {'long_name': 'United Kingdom', 'short_name': 'GB', 'types': ['country', 'political']}, {'long_name': 'WC2A 3TL', 'short_name': 'WC2A 3TL', 'types': ['postal_code']}], 'formatted_address': ""Lincoln's Inn The Treasury Office, Holborn, London WC2A 3TL, UK"", 'geometry': {'location': {'lat': 51.5167429, 'lng': -0.1143896}, 'location_type': 'GEOMETRIC_CENTER', 'viewport': {'northeast': {'lat': 51.5180918802915, 'lng': -0.113040619708498}, 'southwest': {'lat': 51.5153939197085, 'lng': -0.115738580291502}}}, 'place_id': 'ChIJ2WpivUobdkgR31P_J_jBYkg', 'plus_code': {'compound_code': 'GV8P+M6 London, United Kingdom', 'global_code': '9C3XGV8P+M6'}, 'types': ['establishment', 'point_of_interest']}], 'status': 'OK'}",True,51.5167429,-0.1143896,thursday
6,"
c/o All Souls Clubhouse, 141 Cleveland Street
",[],['02075803522'],"Organisation that participates in the Westminster Churches Winter Shelter (referral only). Films, coach trips, clothes store and bible group Saturdays at 6.30pm. Invites via the tea run or welcome desk at All Souls Langham Pl. If you need step-free access, a volunteer will let you in via Cleveland St entrance. Email: info@allsouls.org",['http://bit.ly/K90HTT'],"Art classes, Clothing store, Drugs workers, Education/training, Food (free), Food, Leisure facilities",ASLAN (All Souls Local Action Network),"[['Saturday', ' 5:30am-7:45am'], '(tea run: 5.45-6.15 Tavistock St; 6.15-6.45 Savoy Pl; 7-7.45 King William IV St; All Souls Ch 6.30-8.30)']",Saturday, 5:30am-7:45am,(tea run: 5.45-6.15 Tavistock St; 6.15-6.45 Savoy Pl; 7-7.45 King William IV St; All Souls Ch 6.30-8.30),"{'results': [{'address_components': [{'long_name': 'Tavistock Street', 'short_name': 'Tavistock St', 'types': ['route']}, {'long_name': 'Covent Garden', 'short_name': 'Covent Garden', 'types': ['neighborhood', 'political']}, {'long_name': 'London', 'short_name': 'London', 'types': ['postal_town']}, {'long_name': 'Greater London', 'short_name': 'Greater London', 'types': ['administrative_area_level_2', 'political']}, {'long_name': 'England', 'short_name': 'England', 'types': ['administrative_area_level_1', 'political']}, {'long_name': 'United Kingdom', 'short_name': 'GB', 'types': ['country', 'political']}], 'formatted_address': 'Tavistock St, Covent Garden, London, UK', 'geometry': {'bounds': {'northeast': {'lat': 51.5133869, 'lng': -0.1190894}, 'southwest': {'lat': 51.511002, 'lng': -0.1222964}}, 'location': {'lat': 51.51209859999999, 'lng': -0.1205197}, 'location_type': 'GEOMETRIC_CENTER', 'viewport': {'northeast': {'lat': 51.51354343029151, 'lng': -0.1190894}, 'southwest': {'lat': 51.51084546970851, 'lng': -0.1222964}}}, 'partial_match': True, 'place_id': 'ChIJdZAOqMsEdkgRmLIWrILjKUM', 'types': ['route']}], 'status': 'OK'}",True,51.51209859999999,-0.1205197,saturday
7,"
URC Rookstone Road
",['SW17 9NQ'],['07397288160'],Connecting people through community activities and cultivating respect over a bite. Free or pay-as-you-can community meals three days a week in S London. Volunteering or training opportunities through cooking lessons.,['http://bit.ly/1MtkjRr'],"Food (free), Food",Be Enriched,"[['Monday', ' 12:30pm-2:30pm'], 'Crossways Church, 18 Hampton St, SE1 6SN']",Monday, 12:30pm-2:30pm,"Crossways Church, 18 Hampton St, SE1 6SN","{'results': [{'address_components': [{'long_name': '18', 'short_name': '18', 'types': ['street_number']}, {'long_name': 'Hampton Street', 'short_name': 'Hampton St', 'types': ['route']}, {'long_name': 'London', 'short_name': 'London', 'types': ['postal_town']}, {'long_name': 'Greater London', 'short_name': 'Greater London', 'types': ['administrative_area_level_2', 'political']}, {'long_name': 'England', 'short_name': 'England', 'types': ['administrative_area_level_1', 'political']}, {'long_name': 'United Kingdom', 'short_name': 'GB', 'types': ['country', 'political']}, {'long_name': 'SE1 6SL', 'short_name': 'SE1 6SL', 'types': ['postal_code']}], 'formatted_address': '18 Hampton St, London SE1 6SL, UK', 'geometry': {'location': {'lat': 51.4924097, 'lng': -0.0994548}, 'location_type': 'ROOFTOP', 'viewport': {'northeast': {'lat': 51.4937586802915, 'lng': -0.09810581970849797}, 'southwest': {'lat': 51.4910607197085, 'lng': -0.100803780291502}}}, 'place_id': 'ChIJRUvUA6AEdkgRLvs697R3c2Q', 'plus_code': {'compound_code': 'FWR2+X6 London, United Kingdom', 'global_code': '9C3XFWR2+X6'}, 'types': ['church', 'establishment', 'place_of_worship', 'point_of_interest']}], 'status': 'OK'}",True,51.4924097,-0.0994548,monday
7,"
URC Rookstone Road
",['SW17 9NQ'],['07397288160'],Connecting people through community activities and cultivating respect over a bite. Free or pay-as-you-can community meals three days a week in S London. Volunteering or training opportunities through cooking lessons.,['http://bit.ly/1MtkjRr'],"Food (free), Food",Be Enriched,"[['Tuesday', ' 7pm-9pm'], 'London Cooking Project, 1 Ethelburga St, SW11 4AG']",Tuesday, 7pm-9pm,"London Cooking Project, 1 Ethelburga St, SW11 4AG","{'results': [{'address_components': [{'long_name': '1', 'short_name': '1', 'types': ['street_number']}, {'long_name': 'Ethelburga Street', 'short_name': 'Ethelburga St', 'types': ['route']}, {'long_name': 'Battersea', 'short_name': 'Battersea', 'types': ['neighborhood', 'political']}, {'long_name': 'London', 'short_name': 'London', 'types': ['postal_town']}, {'long_name': 'Greater London', 'short_name': 'Greater London', 'types': ['administrative_area_level_2', 'political']}, {'long_name': 'England', 'short_name': 'England', 'types': ['administrative_area_level_1', 'political']}, {'long_name': 'United Kingdom', 'short_name': 'GB', 'types': ['country', 'political']}, {'long_name': 'SW11 4AG', 'short_name': 'SW11 4AG', 'types': ['postal_code']}], 'formatted_address': '1 Ethelburga St, Battersea, London SW11 4AG, UK', 'geometry': {'location': {'lat': 51.4771475, 'lng': -0.1674697}, 'location_type': 'ROOFTOP', 'viewport': {'northeast': {'lat': 51.4784964802915, 'lng': -0.166120719708498}, 'southwest': {'lat': 51.4757985197085, 'lng': -0.168818680291502}}}, 'place_id': 'ChIJAQ44YnQFdkgR068H5Y3VHPc', 'plus_code': {'compound_code': 'FRGM+V2 London, United Kingdom', 'global_code': '9C3XFRGM+V2'}, 'types': ['establishment', 'food', 'point_of_interest', 'restaurant']}], 'status': 'OK'}",True,51.4771475,-0.1674697,tuesday
7,"
URC Rookstone Road
",['SW17 9NQ'],['07397288160'],Connecting people through community activities and cultivating respect over a bite. Free or pay-as-you-can community meals three days a week in S London. Volunteering or training opportunities through cooking lessons.,['http://bit.ly/1MtkjRr'],"Food (free), Food",Be Enriched,"[['Friday', ' 12:30pm-2:30pm'], 'URC, Rookstone Rd, SW17 9NQ']",Friday, 12:30pm-2:30pm,"URC, Rookstone Rd, SW17 9NQ","{'results': [{'address_components': [{'long_name': 'Rookstone Road', 'short_name': 'Rookstone Rd', 'types': ['route']}, {'long_name': 'London', 'short_name': 'London', 'types': ['locality', 'political']}, {'long_name': 'Tooting', 'short_name': 'Tooting', 'types': ['postal_town']}, {'long_name': 'Greater London', 'short_name': 'Greater London', 'types': ['administrative_area_level_2', 'political']}, {'long_name': 'England', 'short_name': 'England', 'types': ['administrative_area_level_1', 'political']}, {'long_name': 'United Kingdom', 'short_name': 'GB', 'types': ['country', 'political']}, {'long_name': 'SW17 9NQ', 'short_name': 'SW17 9NQ', 'types': ['postal_code']}], 'formatted_address': 'Rookstone Rd, London, Tooting SW17 9NQ, UK', 'geometry': {'location': {'lat': 51.42504049999999, 'lng': -0.1646611}, 'location_type': 'GEOMETRIC_CENTER', 'viewport': {'northeast': {'lat': 51.4263894802915, 'lng': -0.163312119708498}, 'southwest': {'lat': 51.4236915197085, 'lng': -0.166010080291502}}}, 'partial_match': True, 'place_id': 'ChIJx4nOlwwGdkgRWydkEE3cTnM', 'plus_code': {'compound_code': 'CRGP+24 London Borough of Wandsworth, United Kingdom', 'global_code': '9C3XCRGP+24'}, 'types': ['church', 'establishment', 'place_of_worship', 'point_of_interest']}], 'status': 'OK'}",True,51.42504049999999,-0.1646611,friday
13,"
65 Blackhorse Road, Walthamstow
",['E17 7AS'],['02077294375'],"Hot meals from a mobile kitchen van in Mission Grove, Walthamstow.",['https://bit.ly/2M4a0ZX'],Food (free),Christian Kitchen,"[['Monday-Sunday', ' 7:30pm-8:30pm'], '(Mission Grove car park, Walthamstow)']",Monday-Sunday, 7:30pm-8:30pm,"(Mission Grove car park, Walthamstow)","{'results': [{'address_components': [{'long_name': 'Mission Grove', 'short_name': 'Mission Grove', 'types': ['route']}, {'long_name': 'Walthamstow', 'short_name': 'Walthamstow', 'types': ['neighborhood', 'political']}, {'long_name': 'London', 'short_name': 'London', 'types': ['postal_town']}, {'long_name': 'Greater London', 'short_name': 'Greater London', 'types': ['administrative_area_level_2', 'political']}, {'long_name': 'England', 'short_name': 'England', 'types': ['administrative_area_level_1', 'political']}, {'long_name': 'United Kingdom', 'short_name': 'GB', 'types': ['country', 'political']}, {'long_name': 'E17', 'short_name': 'E17', 'types': ['postal_code', 'postal_code_prefix']}], 'formatted_address': 'Mission Grove, Walthamstow, London E17, UK', 'geometry': {'bounds': {'northeast': {'lat': 51.5837022, 'lng': -0.028303}, 'southwest': {'lat': 51.5820562, 'lng': -0.0345527}}, 'location': {'lat': 51.5827402, 'lng': -0.0314257}, 'location_type': 'GEOMETRIC_CENTER', 'viewport': {'northeast': {'lat': 51.5842281802915, 'lng': -0.028303}, 'southwest': {'lat': 51.5815302197085, 'lng': -0.0345527}}}, 'place_id': 'ChIJYeJimsYddkgRVQDT5U18k8w', 'types': ['route']}], 'status': 'OK'}",True,51.5827402,-0.0314257,"['monday', 'tuesday', 'wednesday', 'thursday', 'friday', 'saturday']"
14,"

",[],"['02085559880', '02085341164']","All applications for food must be accompanied by a referral from an independent agent (e.g. a doctor, a social worker or support worker, a school or nursery, a Job Centre).",['http://bit.ly/1Q7JojB'],"Advocacy, Bathroom/showers, Food (free), Food",Churches Foodbank (Newham),"[['Thursday', ' 1pm-3pm'], '(Woodgrange Baptist Ch, Romford Rd, E7 8AA)']",Thursday, 1pm-3pm,"(Woodgrange Baptist Ch, Romford Rd, E7 8AA)","{'results': [{'address_components': [{'long_name': '345', 'short_name': '345', 'types': ['street_number']}, {'long_name': 'Romford Road', 'short_name': 'Romford Rd', 'types': ['route']}, {'long_name': 'Forest Gate', 'short_name': 'Forest Gate', 'types': ['neighborhood', 'political']}, {'long_name': 'London', 'short_name': 'London', 'types': ['postal_town']}, {'long_name': 'Greater London', 'short_name': 'Greater London', 'types': ['administrative_area_level_2', 'political']}, {'long_name': 'England', 'short_name': 'England', 'types': ['administrative_area_level_1', 'political']}, {'long_name': 'United Kingdom', 'short_name': 'GB', 'types': ['country', 'political']}, {'long_name': 'E7 8AA', 'short_name': 'E7 8AA', 'types': ['postal_code']}], 'formatted_address': '345 Romford Rd, Forest Gate, London E7 8AA, UK', 'geometry': {'location': {'lat': 51.5470024, 'lng': 0.0284038}, 'location_type': 'ROOFTOP', 'viewport': {'northeast': {'lat': 51.54835138029151, 'lng': 0.02975278029150203}, 'southwest': {'lat': 51.54565341970851, 'lng': 0.02705481970849797}}}, 'place_id': 'ChIJIRnuSaOn2EcRVG1TXd-TQuY', 'plus_code': {'compound_code': 'G2WH+R9 Forest Gate, London, United Kingdom', 'global_code': '9F32G2WH+R9'}, 'types': ['church', 'establishment', 'place_of_worship', 'point_of_interest']}], 'status': 'OK'}",True,51.5470024,0.0284038,thursday
18,"
Allen Street, Kensington
",['W8 6UX'],['02079375782'],Outreach mission from young Copts.,['https://bit.ly/2nnuqhJ'],Food (free),Coptic City Mission (St Mark's Coptic Orthodox Church),"[['Tuesday', ' 9pm-9:45pm'], '(Spenser Street SW1E 6AA, then Strand)']",Tuesday, 9pm-9:45pm,"(Spenser Street SW1E 6AA, then Strand)","{'results': [{'address_components': [{'long_name': 'Spenser Street', 'short_name': 'Spenser St', 'types': ['route']}, {'long_name': 'Westminster', 'short_name': 'Westminster', 'types': ['neighborhood', 'political']}, {'long_name': 'London', 'short_name': 'London', 'types': ['postal_town']}, {'long_name': 'Greater London', 'short_name': 'Greater London', 'types': ['administrative_area_level_2', 'political']}, {'long_name': 'England', 'short_name': 'England', 'types': ['administrative_area_level_1', 'political']}, {'long_name': 'United Kingdom', 'short_name': 'GB', 'types': ['country', 'political']}, {'long_name': 'SW1E 6AA', 'short_name': 'SW1E 6AA', 'types': ['postal_code']}], 'formatted_address': 'Spenser St, Westminster, London SW1E 6AA, UK', 'geometry': {'bounds': {'northeast': {'lat': 51.4980121, 'lng': -0.1358981}, 'southwest': {'lat': 51.49780550000001, 'lng': -0.1371144}}, 'location': {'lat': 51.4979068, 'lng': -0.1365726}, 'location_type': 'GEOMETRIC_CENTER', 'viewport': {'northeast': {'lat': 51.4992577802915, 'lng': -0.135157269708498}, 'southwest': {'lat': 51.4965598197085, 'lng': -0.137855230291502}}}, 'partial_match': True, 'place_id': 'Eh9TcGVuc2VyIFN0LCBMb25kb24gU1cxRSA2QUEsIFVLIi4qLAoUChIJWacOwN4EdkgR53R0DGZy67ASFAoSCXcsGsPeBHZIEYnBq3PW1dBP', 'types': ['route']}, {'address_components': [{'long_name': 'Strand', 'short_name': 'Strand', 'types': ['route']}, {'long_name': 'London', 'short_name': 'London', 'types': ['postal_town']}, {'long_name': 'Greater London', 'short_name': 'Greater London', 'types': ['administrative_area_level_2', 'political']}, {'long_name': 'England', 'short_name': 'England', 'types': ['administrative_area_level_1', 'political']}, {'long_name': 'United Kingdom', 'short_name': 'GB', 'types': ['country', 'political']}], 'formatted_address': 'Strand, London, UK', 'geometry': {'bounds': {'northeast': {'lat': 51.51429839999999, 'lng': -0.1108245}, 'southwest': {'lat': 51.50705420000001, 'lng': -0.1277033}}, 'location': {'lat': 51.5112079, 'lng': -0.1193447}, 'location_type': 'GEOMETRIC_CENTER', 'viewport': {'northeast': {'lat': 51.51429839999999, 'lng': -0.1108245}, 'southwest': {'lat': 51.50705420000001, 'lng': -0.1277033}}}, 'partial_match': True, 'place_id': 'ChIJ3fliOsoEdkgRYxoYobox6es', 'types': ['route']}], 'status': 'OK'}",True,51.4979068,-0.1365726,tuesday
19,"
St John's Church Hall, Mattock Lane
",['W13 9LA'],['02088400651'],They also give practical help/housing advice. AA meetings.,['http://bit.ly/1PfJNlx'],"Accommodation/housing advice, Alcohol workers, Food (free)",Ealing Soup Kitchen,"[['Saturday & Sunday', ' 3:30pm-5pm'], ""(St John's Ch Room, Mattock Lane,  W13 9LA)""]",Saturday & Sunday, 3:30pm-5pm,"(St John's Ch Room, Mattock Lane,  W13 9LA)","{'results': [{'address_components': [{'long_name': 'St Johns Church', 'short_name': 'St Johns Church', 'types': ['premise']}, {'long_name': 'Mattock Lane', 'short_name': 'Mattock Ln', 'types': ['route']}, {'long_name': 'West Ealing', 'short_name': 'West Ealing', 'types': ['neighborhood', 'political']}, {'long_name': 'London', 'short_name': 'London', 'types': ['postal_town']}, {'long_name': 'Greater London', 'short_name': 'Greater London', 'types': ['administrative_area_level_2', 'political']}, {'long_name': 'England', 'short_name': 'England', 'types': ['administrative_area_level_1', 'political']}, {'long_name': 'United Kingdom', 'short_name': 'GB', 'types': ['country', 'political']}, {'long_name': 'W13 9LA', 'short_name': 'W13 9LA', 'types': ['postal_code']}], 'formatted_address': 'St Johns Church, Mattock Ln, West Ealing, London W13 9LA, UK', 'geometry': {'location': {'lat': 51.509923, 'lng': -0.317178}, 'location_type': 'ROOFTOP', 'viewport': {'northeast': {'lat': 51.5112719802915, 'lng': -0.3158290197084979}, 'southwest': {'lat': 51.5085740197085, 'lng': -0.318526980291502}}}, 'place_id': 'ChIJ2VZyr4gNdkgRpDhbrpHBu2E', 'plus_code': {'compound_code': 'GM5M+X4 London, United Kingdom', 'global_code': '9C3XGM5M+X4'}, 'types': ['church', 'establishment', 'place_of_worship', 'point_of_interest']}, {'address_components': [{'long_name': ""Saint James' Avenue"", 'short_name': ""St James' Ave"", 'types': ['route']}, {'long_name': 'West Ealing', 'short_name': 'West Ealing', 'types': ['neighborhood', 'political']}, {'long_name': 'London', 'short_name': 'London', 'types': ['postal_town']}, {'long_name': 'Greater London', 'short_name': 'Greater London', 'types': ['administrative_area_level_2', 'political']}, {'long_name': 'England', 'short_name': 'England', 'types': ['administrative_area_level_1', 'political']}, {'long_name': 'United Kingdom', 'short_name': 'GB', 'types': ['country', 'political']}, {'long_name': 'W13 9DJ', 'short_name': 'W13 9DJ', 'types': ['postal_code']}], 'formatted_address': ""St James' Ave, West Ealing, London W13 9DJ, UK"", 'geometry': {'location': {'lat': 51.5090041, 'lng': -0.3264339000000001}, 'location_type': 'GEOMETRIC_CENTER', 'viewport': {'northeast': {'lat': 51.5103530802915, 'lng': -0.325084919708498}, 'southwest': {'lat': 51.5076551197085, 'lng': -0.3277828802915021}}}, 'place_id': 'ChIJpb2Z1IMNdkgRGVdSg0CBSJo', 'plus_code': {'compound_code': 'GM5F+JC West Ealing, London, United Kingdom', 'global_code': '9C3XGM5F+JC'}, 'types': ['church', 'establishment', 'place_of_worship', 'point_of_interest']}], 'status': 'OK'}",True,51.509923,-0.317178,"['saturday', 'sunday']"
19,"
St John's Church Hall, Mattock Lane
",['W13 9LA'],['02088400651'],They also give practical help/housing advice. AA meetings.,['http://bit.ly/1PfJNlx'],"Accommodation/housing advice, Alcohol workers, Food (free)",Ealing Soup Kitchen,"[['Friday', ' 11am-4pm'], ""(drop-in, The Crypt, St John's W13 9LA""]",Friday, 11am-4pm,"(drop-in, The Crypt, St John's W13 9LA","{'results': [{'address_components': [{'long_name': 'St Johns Church', 'short_name': 'St Johns Church', 'types': ['premise']}, {'long_name': 'Mattock Lane', 'short_name': 'Mattock Ln', 'types': ['route']}, {'long_name': 'West Ealing', 'short_name': 'West Ealing', 'types': ['neighborhood', 'political']}, {'long_name': 'London', 'short_name': 'London', 'types': ['postal_town']}, {'long_name': 'Greater London', 'short_name': 'Greater London', 'types': ['administrative_area_level_2', 'political']}, {'long_name': 'England', 'short_name': 'England', 'types': ['administrative_area_level_1', 'political']}, {'long_name': 'United Kingdom', 'short_name': 'GB', 'types': ['country', 'political']}, {'long_name': 'W13 9LA', 'short_name': 'W13 9LA', 'types': ['postal_code']}], 'formatted_address': 'St Johns Church, Mattock Ln, West Ealing, London W13 9LA, UK', 'geometry': {'location': {'lat': 51.509923, 'lng': -0.317178}, 'location_type': 'ROOFTOP', 'viewport': {'northeast': {'lat': 51.5112719802915, 'lng': -0.3158290197084979}, 'southwest': {'lat': 51.5085740197085, 'lng': -0.318526980291502}}}, 'place_id': 'ChIJ2VZyr4gNdkgRpDhbrpHBu2E', 'plus_code': {'compound_code': 'GM5M+X4 London, United Kingdom', 'global_code': '9C3XGM5M+X4'}, 'types': ['church', 'establishment', 'place_of_worship', 'point_of_interest']}, {'address_components': [{'long_name': 'Mattock Lane', 'short_name': 'Mattock Ln', 'types': ['route']}, {'long_name': 'West Ealing', 'short_name': 'West Ealing', 'types': ['neighborhood', 'political']}, {'long_name': 'London', 'short_name': 'London', 'types': ['postal_town']}, {'long_name': 'Greater London', 'short_name': 'Greater London', 'types': ['administrative_area_level_2', 'political']}, {'long_name': 'England', 'short_name': 'England', 'types': ['administrative_area_level_1', 'political']}, {'long_name': 'United Kingdom', 'short_name': 'GB', 'types': ['country', 'political']}, {'long_name': 'W13 9LA', 'short_name': 'W13 9LA', 'types': ['postal_code']}], 'formatted_address': ""The Crypt, St John's Church, Mattock Ln, West Ealing, London W13 9LA, UK"", 'geometry': {'location': {'lat': 51.51088679999999, 'lng': -0.3183988}, 'location_type': 'GEOMETRIC_CENTER', 'viewport': {'northeast': {'lat': 51.5122357802915, 'lng': -0.3170498197084979}, 'southwest': {'lat': 51.5095378197085, 'lng': -0.319747780291502}}}, 'place_id': 'ChIJRyxysIgNdkgRteARsLvG-ig', 'plus_code': {'compound_code': 'GM6J+9J London, United Kingdom', 'global_code': '9C3XGM6J+9J'}, 'types': ['establishment', 'point_of_interest']}], 'status': 'OK'}",True,51.509923,-0.317178,friday
19,"
St John's Church Hall, Mattock Lane
",['W13 9LA'],['02088400651'],They also give practical help/housing advice. AA meetings.,['http://bit.ly/1PfJNlx'],"Accommodation/housing advice, Alcohol workers, Food (free)",Ealing Soup Kitchen,"[['Monday', ' 7pm-9pm'], '(drop-in, Salvation Army, 6 Leeland Rd, W13 9HH)']",Monday, 7pm-9pm,"(drop-in, Salvation Army, 6 Leeland Rd, W13 9HH)","{'results': [{'address_components': [{'long_name': '8', 'short_name': '8', 'types': ['street_number']}, {'long_name': 'Leeland Road', 'short_name': 'Leeland Rd', 'types': ['route']}, {'long_name': 'West Ealing', 'short_name': 'West Ealing', 'types': ['neighborhood', 'political']}, {'long_name': 'London', 'short_name': 'London', 'types': ['postal_town']}, {'long_name': 'Greater London', 'short_name': 'Greater London', 'types': ['administrative_area_level_2', 'political']}, {'long_name': 'England', 'short_name': 'England', 'types': ['administrative_area_level_1', 'political']}, {'long_name': 'United Kingdom', 'short_name': 'GB', 'types': ['country', 'political']}, {'long_name': 'W13 9HH', 'short_name': 'W13 9HH', 'types': ['postal_code']}], 'formatted_address': '8 Leeland Rd, West Ealing, London W13 9HH, UK', 'geometry': {'location': {'lat': 51.5096567, 'lng': -0.3231146}, 'location_type': 'ROOFTOP', 'viewport': {'northeast': {'lat': 51.5110056802915, 'lng': -0.3217656197084979}, 'southwest': {'lat': 51.5083077197085, 'lng': -0.324463580291502}}}, 'place_id': 'ChIJ0R6CroYNdkgRoNzsZUiF3ns', 'plus_code': {'compound_code': 'GM5G+VQ West Ealing, London, United Kingdom', 'global_code': '9C3XGM5G+VQ'}, 'types': ['establishment', 'point_of_interest']}], 'status': 'OK'}",True,51.5096567,-0.3231146,monday
24,"

",[],['02073942468'],"Help for people of all faiths and none, and a sympathetic ear.",['http://bit.ly/nDTFHu'],Food (free),FAST58,"[['Friday', ' 8:45pm-11pm'], '(Strand, near Ryman’s)']",Friday, 8:45pm-11pm,"(Strand, near Ryman’s)","{'results': [{'address_components': [{'long_name': '430', 'short_name': '430', 'types': ['street_number']}, {'long_name': 'Strand', 'short_name': 'Strand', 'types': ['route']}, {'long_name': 'Charing Cross', 'short_name': 'Charing Cross', 'types': ['neighborhood', 'political']}, {'long_name': 'London', 'short_name': 'London', 'types': ['postal_town']}, {'long_name': 'Greater London', 'short_name': 'Greater London', 'types': ['administrative_area_level_2', 'political']}, {'long_name': 'England', 'short_name': 'England', 'types': ['administrative_area_level_1', 'political']}, {'long_name': 'United Kingdom', 'short_name': 'GB', 'types': ['country', 'political']}, {'long_name': 'WC2R 0QN', 'short_name': 'WC2R 0QN', 'types': ['postal_code']}], 'formatted_address': '430 Strand, Charing Cross, London WC2R 0QN, UK', 'geometry': {'location': {'lat': 51.5093329, 'lng': -0.1244707}, 'location_type': 'ROOFTOP', 'viewport': {'northeast': {'lat': 51.5106818802915, 'lng': -0.123121719708498}, 'southwest': {'lat': 51.5079839197085, 'lng': -0.125819680291502}}}, 'place_id': 'ChIJAzbHms4EdkgRCX6_RlISkac', 'plus_code': {'compound_code': 'GV5G+P6 London, United Kingdom', 'global_code': '9C3XGV5G+P6'}, 'types': ['electronics_store', 'establishment', 'finance', 'home_goods_store', 'point_of_interest', 'store']}, {'address_components': [{'long_name': 'Bennett Precinct', 'short_name': 'Bennett Precinct', 'types': ['premise']}, {'long_name': '51', 'short_name': '51', 'types': ['street_number']}, {'long_name': 'The Strand', 'short_name': 'The Strand', 'types': ['route']}, {'long_name': 'Longton Exchange', 'short_name': 'Longton Exchange', 'types': ['political', 'sublocality', 'sublocality_level_1']}, {'long_name': 'Stoke-on-Trent', 'short_name': 'Stoke-on-Trent', 'types': ['postal_town']}, {'long_name': 'Stoke-on-Trent', 'short_name': 'Stoke-on-Trent', 'types': ['administrative_area_level_2', 'political']}, {'long_name': 'England', 'short_name': 'England', 'types': ['administrative_area_level_1', 'political']}, {'long_name': 'United Kingdom', 'short_name': 'GB', 'types': ['country', 'political']}, {'long_name': 'ST3 2NS', 'short_name': 'ST3 2NS', 'types': ['postal_code']}], 'formatted_address': 'Bennett Precinct, 51 The Strand, Longton Exchange, Stoke-on-Trent ST3 2NS, UK', 'geometry': {'location': {'lat': 52.9880862, 'lng': -2.1366152}, 'location_type': 'ROOFTOP', 'viewport': {'northeast': {'lat': 52.98943518029149, 'lng': -2.135266219708498}, 'southwest': {'lat': 52.98673721970849, 'lng': -2.137964180291502}}}, 'place_id': 'ChIJuWf78pxpekgRNKQfidXtsIA', 'plus_code': {'compound_code': 'XVQ7+69 Stoke-on-Trent, United Kingdom', 'global_code': '9C4VXVQ7+69'}, 'types': ['establishment', 'finance', 'point_of_interest', 'store']}], 'status': 'OK'}",True,51.5093329,-0.1244707,friday
24,"

",[],['02073942468'],"Help for people of all faiths and none, and a sympathetic ear.",['http://bit.ly/nDTFHu'],Food (free),FAST58,"[['Friday', ' 9:15pm-10:30pm'], '(Waterloo, near IMAX)']",Friday, 9:15pm-10:30pm,"(Waterloo, near IMAX)","{'results': [{'address_components': [{'long_name': 'South Bank', 'short_name': 'South Bank', 'types': ['neighborhood', 'political']}, {'long_name': 'London', 'short_name': 'London', 'types': ['postal_town']}, {'long_name': 'Greater London', 'short_name': 'Greater London', 'types': ['administrative_area_level_2', 'political']}, {'long_name': 'England', 'short_name': 'England', 'types': ['administrative_area_level_1', 'political']}, {'long_name': 'United Kingdom', 'short_name': 'GB', 'types': ['country', 'political']}, {'long_name': 'SE1 8XR', 'short_name': 'SE1 8XR', 'types': ['postal_code']}], 'formatted_address': '1 Charlie Chaplin Walk, Waterloo, London SE1 8XR, UK', 'geometry': {'location': {'lat': 51.5048328, 'lng': -0.113505}, 'location_type': 'GEOMETRIC_CENTER', 'viewport': {'northeast': {'lat': 51.50618178029149, 'lng': -0.112156019708498}, 'southwest': {'lat': 51.5034838197085, 'lng': -0.114853980291502}}}, 'place_id': 'ChIJm_mee7cEdkgRM0sbLsHGeWg', 'plus_code': {'compound_code': 'GV3P+WH Lambeth, London, United Kingdom', 'global_code': '9C3XGV3P+WH'}, 'types': ['bar', 'cafe', 'establishment', 'food', 'movie_theater', 'point_of_interest', 'store']}], 'status': 'OK'}",True,51.5048328,-0.113505,friday
26,"
37 Elizabeth Road, Brentwood, Dagenham, Essex
",['CM15 9PA'],['07985585996'],"Charitable organisation dedicated to reaching out to marginalised members of society. Founded upon Christian ethos, they aspire to address the social conditions of people in their vicinity by showing practical love.",['http://bit.ly/1xyrD2L'],"Clothing store, Food (free)",Flowing Rivers Foundation,"[['Tuesday', ' 7pm-10pm'], '(fellowship – Castle Green, Dagenham)']",Tuesday, 7pm-10pm,"(fellowship – Castle Green, Dagenham)","{'results': [{'address_components': [{'long_name': 'Castle Green', 'short_name': 'Castle Green', 'types': ['premise']}, {'long_name': 'Gale Street', 'short_name': 'Gale St', 'types': ['route']}, {'long_name': 'Dagenham', 'short_name': 'Dagenham', 'types': ['postal_town']}, {'long_name': 'Greater London', 'short_name': 'Greater London', 'types': ['administrative_area_level_2', 'political']}, {'long_name': 'England', 'short_name': 'England', 'types': ['administrative_area_level_1', 'political']}, {'long_name': 'United Kingdom', 'short_name': 'GB', 'types': ['country', 'political']}, {'long_name': 'RM9 4UN', 'short_name': 'RM9 4UN', 'types': ['postal_code']}], 'formatted_address': 'Castle Green, Gale St, Dagenham RM9 4UN, UK', 'geometry': {'bounds': {'northeast': {'lat': 51.53424130000001, 'lng': 0.1268715}, 'southwest': {'lat': 51.53285409999999, 'lng': 0.1254986}}, 'location': {'lat': 51.53350409999999, 'lng': 0.1265312}, 'location_type': 'ROOFTOP', 'viewport': {'northeast': {'lat': 51.5348966802915, 'lng': 0.127534030291502}, 'southwest': {'lat': 51.5321987197085, 'lng': 0.124836069708498}}}, 'place_id': 'ChIJHRWoqpel2EcRk1vTWo8s2XM', 'types': ['premise']}], 'status': 'OK'}",True,51.53350409999999,0.1265312,tuesday
27,"
12 Voyagers Close
",['SE28 8QQ'],['02036510869'],,['http://bit.ly/1mgtna6'],Food (free),Good Samaria Network,"[['Sunday', ' 6pm-7pm'], ""(Lincoln's Inn Fields)""]",Sunday, 6pm-7pm,(Lincoln's Inn Fields),"{'results': [{'address_components': [{'long_name': 'London', 'short_name': 'London', 'types': ['postal_town']}, {'long_name': 'Holborn', 'short_name': 'Holborn', 'types': ['neighborhood', 'political']}, {'long_name': 'Greater London', 'short_name': 'Greater London', 'types': ['administrative_area_level_2', 'political']}, {'long_name': 'England', 'short_name': 'England', 'types': ['administrative_area_level_1', 'political']}, {'long_name': 'United Kingdom', 'short_name': 'GB', 'types': ['country', 'political']}, {'long_name': 'WC2A 3TL', 'short_name': 'WC2A 3TL', 'types': ['postal_code']}], 'formatted_address': ""Lincoln's Inn The Treasury Office, Holborn, London WC2A 3TL, UK"", 'geometry': {'location': {'lat': 51.5167429, 'lng': -0.1143896}, 'location_type': 'GEOMETRIC_CENTER', 'viewport': {'northeast': {'lat': 51.5180918802915, 'lng': -0.113040619708498}, 'southwest': {'lat': 51.5153939197085, 'lng': -0.115738580291502}}}, 'place_id': 'ChIJ2WpivUobdkgR31P_J_jBYkg', 'plus_code': {'compound_code': 'GV8P+M6 London, United Kingdom', 'global_code': '9C3XGV8P+M6'}, 'types': ['establishment', 'point_of_interest']}], 'status': 'OK'}",True,51.5167429,-0.1143896,sunday
29,"
102 Caledonian Road
",['N1 9DN'],['07946420827'],Delicious food made with pure vegetarian ingredients.,['http://bit.ly/cjkt0r'],"Education/training, Food (free), Internet access, Leisure facilities",Hare Krishna Food for All,"[['Monday-Saturday', ' 12pm-3pm'], ""(12.00: Islip St, Kentish Tn; 13.00: Arlington Rd/Inverness St, Camden; 14.25: (York Way, King's Cross)""]",Monday-Saturday, 12pm-3pm,"(12.00: Islip St, Kentish Tn; 13.00: Arlington Rd/Inverness St, Camden; 14.25: (York Way, King's Cross)","{'results': [{'address_components': [{'long_name': 'Islip Street', 'short_name': 'Islip St', 'types': ['route']}, {'long_name': 'Kentish Town', 'short_name': 'Kentish Town', 'types': ['neighborhood', 'political']}, {'long_name': 'London', 'short_name': 'London', 'types': ['postal_town']}, {'long_name': 'Greater London', 'short_name': 'Greater London', 'types': ['administrative_area_level_2', 'political']}, {'long_name': 'England', 'short_name': 'England', 'types': ['administrative_area_level_1', 'political']}, {'long_name': 'United Kingdom', 'short_name': 'GB', 'types': ['country', 'political']}, {'long_name': 'NW5', 'short_name': 'NW5', 'types': ['postal_code', 'postal_code_prefix']}], 'formatted_address': 'Islip St, Kentish Town, London NW5, UK', 'geometry': {'bounds': {'northeast': {'lat': 51.5497605, 'lng': -0.1348821}, 'southwest': {'lat': 51.5491023, 'lng': -0.1408665}}, 'location': {'lat': 51.5494488, 'lng': -0.1379006}, 'location_type': 'GEOMETRIC_CENTER', 'viewport': {'northeast': {'lat': 51.55078038029151, 'lng': -0.1348821}, 'southwest': {'lat': 51.54808241970851, 'lng': -0.1408665}}}, 'partial_match': True, 'place_id': 'ChIJo1sIrAMbdkgR29HcrfLbHdA', 'types': ['route']}, {'address_components': [{'long_name': 'York Way', 'short_name': 'York Way', 'types': ['route']}, {'long_name': 'Kings Cross', 'short_name': 'Kings Cross', 'types': ['neighborhood', 'political']}, {'long_name': 'London', 'short_name': 'London', 'types': ['postal_town']}, {'long_name': 'Greater London', 'short_name': 'Greater London', 'types': ['administrative_area_level_2', 'political']}, {'long_name': 'England', 'short_name': 'England', 'types': ['administrative_area_level_1', 'political']}, {'long_name': 'United Kingdom', 'short_name': 'GB', 'types': ['country', 'political']}], 'formatted_address': 'York Way, Kings Cross, London, UK', 'geometry': {'bounds': {'northeast': {'lat': 51.5407971, 'lng': -0.1222252}, 'southwest': {'lat': 51.5307273, 'lng': -0.1250091}}, 'location': {'lat': 51.5355429, 'lng': -0.1222979}, 'location_type': 'GEOMETRIC_CENTER', 'viewport': {'northeast': {'lat': 51.5407971, 'lng': -0.1222252}, 'southwest': {'lat': 51.5307273, 'lng': -0.1250091}}}, 'partial_match': True, 'place_id': 'EiFZb3JrIFdheSwgS2luZ3MgQ3Jvc3MsIExvbmRvbiwgVUsiLiosChQKEgmD5KbpFht2SBESxIFhu45O1xIUChIJzU08xxAbdkgRuWtd0P4Rb2E', 'types': ['route']}], 'status': 'OK'}",True,51.5494488,-0.1379006,"['monday', 'tuesday', 'wednesday', 'thursday', 'friday']"
29,"
102 Caledonian Road
",['N1 9DN'],['07946420827'],Delicious food made with pure vegetarian ingredients.,['http://bit.ly/cjkt0r'],"Education/training, Food (free), Internet access, Leisure facilities",Hare Krishna Food for All,"[['Monday-Friday', ' 12:15pm-2:30pm'], '(LSE and SOAS) ']",Monday-Friday, 12:15pm-2:30pm,(LSE and SOAS) ,"{'results': [{'address_components': [{'long_name': 'Houghton Street', 'short_name': 'Houghton St', 'types': ['route']}, {'long_name': 'Holborn', 'short_name': 'Holborn', 'types': ['neighborhood', 'political']}, {'long_name': 'London', 'short_name': 'London', 'types': ['postal_town']}, {'long_name': 'Greater London', 'short_name': 'Greater London', 'types': ['administrative_area_level_2', 'political']}, {'long_name': 'England', 'short_name': 'England', 'types': ['administrative_area_level_1', 'political']}, {'long_name': 'United Kingdom', 'short_name': 'GB', 'types': ['country', 'political']}, {'long_name': 'WC2A 2AE', 'short_name': 'WC2A 2AE', 'types': ['postal_code']}], 'formatted_address': 'Houghton St, Holborn, London WC2A 2AE, UK', 'geometry': {'location': {'lat': 51.5144388, 'lng': -0.1164513}, 'location_type': 'GEOMETRIC_CENTER', 'viewport': {'northeast': {'lat': 51.5157877802915, 'lng': -0.115102319708498}, 'southwest': {'lat': 51.5130898197085, 'lng': -0.117800280291502}}}, 'place_id': 'ChIJWwWza3sadkgR77gsD5ccs70', 'plus_code': {'compound_code': 'GV7M+QC Holborn, London, United Kingdom', 'global_code': '9C3XGV7M+QC'}, 'types': ['establishment', 'point_of_interest', 'university']}], 'status': 'OK'}",True,51.5144388,-0.1164513,"['monday', 'tuesday', 'wednesday', 'thursday']"
29,"
102 Caledonian Road
",['N1 9DN'],['07946420827'],Delicious food made with pure vegetarian ingredients.,['http://bit.ly/cjkt0r'],"Education/training, Food (free), Internet access, Leisure facilities",Hare Krishna Food for All,"[['Monday-Thursday', ' 7:30pm-8:30pm'], '(Lincoln’s Inn Fields)']",Monday-Thursday, 7:30pm-8:30pm,(Lincoln’s Inn Fields),"{'results': [{'address_components': [{'long_name': 'London', 'short_name': 'London', 'types': ['postal_town']}, {'long_name': 'Holborn', 'short_name': 'Holborn', 'types': ['neighborhood', 'political']}, {'long_name': 'Greater London', 'short_name': 'Greater London', 'types': ['administrative_area_level_2', 'political']}, {'long_name': 'England', 'short_name': 'England', 'types': ['administrative_area_level_1', 'political']}, {'long_name': 'United Kingdom', 'short_name': 'GB', 'types': ['country', 'political']}, {'long_name': 'WC2A 3TL', 'short_name': 'WC2A 3TL', 'types': ['postal_code']}], 'formatted_address': ""Lincoln's Inn The Treasury Office, Holborn, London WC2A 3TL, UK"", 'geometry': {'location': {'lat': 51.5167429, 'lng': -0.1143896}, 'location_type': 'GEOMETRIC_CENTER', 'viewport': {'northeast': {'lat': 51.5180918802915, 'lng': -0.113040619708498}, 'southwest': {'lat': 51.5153939197085, 'lng': -0.115738580291502}}}, 'place_id': 'ChIJ2WpivUobdkgR31P_J_jBYkg', 'plus_code': {'compound_code': 'GV8P+M6 London, United Kingdom', 'global_code': '9C3XGV8P+M6'}, 'types': ['establishment', 'point_of_interest']}], 'status': 'OK'}",True,51.5167429,-0.1143896,"['monday', 'tuesday', 'wednesday']"
37,"

",[],['07904444194'],"Meals, toiletries, clothes, sleeping bags.",NA,"Food (free), Medical/health",Love to the Nations Ministry,"[['Wednesday', ' 7pm-7:30pm'], '(hot drinks and sandwiches, Charing X)']",Wednesday, 7pm-7:30pm,"(hot drinks and sandwiches, Charing X)","{'results': [{'address_components': [{'long_name': 'Charing Cross', 'short_name': 'Charing Cross', 'types': ['neighborhood', 'political']}, {'long_name': 'London', 'short_name': 'London', 'types': ['postal_town']}, {'long_name': 'Greater London', 'short_name': 'Greater London', 'types': ['administrative_area_level_2', 'political']}, {'long_name': 'England', 'short_name': 'England', 'types': ['administrative_area_level_1', 'political']}, {'long_name': 'United Kingdom', 'short_name': 'GB', 'types': ['country', 'political']}], 'formatted_address': 'Charing Cross, London, UK', 'geometry': {'bounds': {'northeast': {'lat': 51.5135131, 'lng': -0.121372}, 'southwest': {'lat': 51.5064678, 'lng': -0.1292108}}, 'location': {'lat': 51.5090275, 'lng': -0.1255016}, 'location_type': 'APPROXIMATE', 'viewport': {'northeast': {'lat': 51.5135131, 'lng': -0.121372}, 'southwest': {'lat': 51.5064678, 'lng': -0.1292108}}}, 'place_id': 'ChIJrStISs4EdkgRvEoozoLVlx0', 'types': ['neighborhood', 'political']}], 'status': 'OK'}",True,51.5090275,-0.1255016,wednesday
37,"

",[],['07904444194'],"Meals, toiletries, clothes, sleeping bags.",NA,"Food (free), Medical/health",Love to the Nations Ministry,"[['Sunday', ' 4pm-4:30pm'], '(alt weeks, Charing X - phone)']",Sunday, 4pm-4:30pm,"(alt weeks, Charing X - phone)","{'results': [{'address_components': [{'long_name': 'Charing Cross', 'short_name': 'Charing Cross', 'types': ['neighborhood', 'political']}, {'long_name': 'London', 'short_name': 'London', 'types': ['postal_town']}, {'long_name': 'Greater London', 'short_name': 'Greater London', 'types': ['administrative_area_level_2', 'political']}, {'long_name': 'England', 'short_name': 'England', 'types': ['administrative_area_level_1', 'political']}, {'long_name': 'United Kingdom', 'short_name': 'GB', 'types': ['country', 'political']}], 'formatted_address': 'Charing Cross, London, UK', 'geometry': {'bounds': {'northeast': {'lat': 51.5135131, 'lng': -0.121372}, 'southwest': {'lat': 51.5064678, 'lng': -0.1292108}}, 'location': {'lat': 51.5090275, 'lng': -0.1255016}, 'location_type': 'APPROXIMATE', 'viewport': {'northeast': {'lat': 51.5135131, 'lng': -0.121372}, 'southwest': {'lat': 51.5064678, 'lng': -0.1292108}}}, 'place_id': 'ChIJrStISs4EdkgRvEoozoLVlx0', 'types': ['neighborhood', 'political']}], 'status': 'OK'}",True,51.5090275,-0.1255016,sunday
38,"
1-5 Cosway St
",['NW1 5NR'],['02072623818'],Female-only project. Two hostels with 112 single beds and a day centre with a rough sleepers' drop-in. Activities programme for residents and day centre users. Lift for people with mobility problems to access the day centre.,['http://bit.ly/1mhvhYf'],"Bathroom/showers, Careers advice, Clothing store, Education/training, Food (free), Internet access, Laundry, Luggage storage, Medical/health, Music/drama, Sexual health, Tenancy support, Step-free, Leisure facilities",Marylebone Centre (Church Army),"[['Thursday & Friday', ' 1:30pm-3:30pm'], '(Westminster Adul Education Service – IT, reading, writing)']",Thursday & Friday, 1:30pm-3:30pm,"(Westminster Adul Education Service – IT, reading, writing)","{'results': [{'address_components': [{'long_name': '219', 'short_name': '219', 'types': ['street_number']}, {'long_name': 'Lisson Grove', 'short_name': 'Lisson Grove', 'types': ['route']}, {'long_name': 'London', 'short_name': 'London', 'types': ['postal_town']}, {'long_name': 'Greater London', 'short_name': 'Greater London', 'types': ['administrative_area_level_2', 'political']}, {'long_name': 'England', 'short_name': 'England', 'types': ['administrative_area_level_1', 'political']}, {'long_name': 'United Kingdom', 'short_name': 'GB', 'types': ['country', 'political']}, {'long_name': 'NW8 8LW', 'short_name': 'NW8 8LW', 'types': ['postal_code']}], 'formatted_address': '219 Lisson Grove, London NW8 8LW, UK', 'geometry': {'location': {'lat': 51.5263311, 'lng': -0.1719986}, 'location_type': 'ROOFTOP', 'viewport': {'northeast': {'lat': 51.5276800802915, 'lng': -0.170649619708498}, 'southwest': {'lat': 51.5249821197085, 'lng': -0.173347580291502}}}, 'partial_match': True, 'place_id': 'ChIJP1iibLoadkgRvHwd2jtlliY', 'plus_code': {'compound_code': 'GRGH+G6 London, United Kingdom', 'global_code': '9C3XGRGH+G6'}, 'types': ['establishment', 'point_of_interest', 'university']}], 'status': 'OK'}",True,51.5263311,-0.1719986,"['thursday', 'friday']"
39,"
46 Manor Road
",['N17 0JJ'],['02088087697'],MOP welcomes one and all.,['https://bit.ly/2KC1GuY'],Food (free),Ministry of Praise,"[['Tuesday', ' 8pm-8:30pm'], '(Lincoln’s Inn Fields)']",Tuesday, 8pm-8:30pm,(Lincoln’s Inn Fields),"{'results': [{'address_components': [{'long_name': 'London', 'short_name': 'London', 'types': ['postal_town']}, {'long_name': 'Holborn', 'short_name': 'Holborn', 'types': ['neighborhood', 'political']}, {'long_name': 'Greater London', 'short_name': 'Greater London', 'types': ['administrative_area_level_2', 'political']}, {'long_name': 'England', 'short_name': 'England', 'types': ['administrative_area_level_1', 'political']}, {'long_name': 'United Kingdom', 'short_name': 'GB', 'types': ['country', 'political']}, {'long_name': 'WC2A 3TL', 'short_name': 'WC2A 3TL', 'types': ['postal_code']}], 'formatted_address': ""Lincoln's Inn The Treasury Office, Holborn, London WC2A 3TL, UK"", 'geometry': {'location': {'lat': 51.5167429, 'lng': -0.1143896}, 'location_type': 'GEOMETRIC_CENTER', 'viewport': {'northeast': {'lat': 51.5180918802915, 'lng': -0.113040619708498}, 'southwest': {'lat': 51.5153939197085, 'lng': -0.115738580291502}}}, 'place_id': 'ChIJ2WpivUobdkgR31P_J_jBYkg', 'plus_code': {'compound_code': 'GV8P+M6 London, United Kingdom', 'global_code': '9C3XGV8P+M6'}, 'types': ['establishment', 'point_of_interest']}], 'status': 'OK'}",True,51.5167429,-0.1143896,tuesday
40,"
c/o 177 Bravington Road
",['W9 3AR'],['02089602644'],,NA,Food (free),Missionaries of Charity Soup Kitchens,"[['Monday, Tuesday, Wednesday, Friday', ' 10am-10:30am'], ""(112-116 St George's Road)""]","Monday, Tuesday, Wednesday, Friday", 10am-10:30am,(112-116 St George's Road),"{'results': [{'address_components': [{'long_name': '112-116', 'short_name': '112-116', 'types': ['street_number']}, {'long_name': ""Saint George's Road"", 'short_name': ""St George's Rd"", 'types': ['route']}, {'long_name': 'London', 'short_name': 'London', 'types': ['postal_town']}, {'long_name': 'Greater London', 'short_name': 'Greater London', 'types': ['administrative_area_level_2', 'political']}, {'long_name': 'England', 'short_name': 'England', 'types': ['administrative_area_level_1', 'political']}, {'long_name': 'United Kingdom', 'short_name': 'GB', 'types': ['country', 'political']}, {'long_name': 'SE1 6EU', 'short_name': 'SE1 6EU', 'types': ['postal_code']}], 'formatted_address': ""112-116 St George's Rd, London SE1 6EU, UK"", 'geometry': {'location': {'lat': 51.4965073, 'lng': -0.105093}, 'location_type': 'ROOFTOP', 'viewport': {'northeast': {'lat': 51.49785628029151, 'lng': -0.103744019708498}, 'southwest': {'lat': 51.49515831970851, 'lng': -0.1064419802915021}}}, 'partial_match': True, 'place_id': 'ChIJQSMw1qIEdkgR90Aa6bgIaM0', 'plus_code': {'compound_code': 'FVWV+JX Elephant and Castle, London, United Kingdom', 'global_code': '9C3XFVWV+JX'}, 'types': ['premise']}], 'status': 'OK'}",True,51.4965073,-0.105093,"['monday', 'tuesday', 'wednesday', 'friday']"
42,"
PO Box 9576
",['SE23 3ZH'],['02084447027'],"Sandwiches, hot drinks and clothes. Helps Croydon-based clients with vocational and educational materials and furniture for resettlement.",['https://bit.ly/2iHxmFf'],"Clothing store, Education/training, Food (free)",Nightwatch,"[['Monday-Sunday', ' 9:30pm-10pm'], ""(Queen's Gardens, Croydon)""]",Monday-Sunday, 9:30pm-10pm,"(Queen's Gardens, Croydon)","{'results': [{'address_components': [{'long_name': ""Queen's Gardens, Croydon"", 'short_name': ""Queen's Gardens, Croydon"", 'types': ['establishment', 'park', 'point_of_interest', 'tourist_attraction']}, {'long_name': 'Park Lane', 'short_name': 'Park Ln', 'types': ['route']}, {'long_name': 'Croydon', 'short_name': 'Croydon', 'types': ['postal_town']}, {'long_name': 'Greater London', 'short_name': 'Greater London', 'types': ['administrative_area_level_2', 'political']}, {'long_name': 'England', 'short_name': 'England', 'types': ['administrative_area_level_1', 'political']}, {'long_name': 'United Kingdom', 'short_name': 'GB', 'types': ['country', 'political']}, {'long_name': 'CR0 1YJ', 'short_name': 'CR0 1YJ', 'types': ['postal_code']}], 'formatted_address': ""Queen's Gardens, Croydon, Park Ln, Croydon CR0 1YJ, UK"", 'geometry': {'location': {'lat': 51.3720484, 'lng': -0.0976548}, 'location_type': 'GEOMETRIC_CENTER', 'viewport': {'northeast': {'lat': 51.37339738029149, 'lng': -0.09630581970849797}, 'southwest': {'lat': 51.37069941970849, 'lng': -0.09900378029150203}}}, 'place_id': 'ChIJ35djajQHdkgRUrSXgL19t8M', 'plus_code': {'compound_code': '9WC2+RW Croydon, United Kingdom', 'global_code': '9C3X9WC2+RW'}, 'types': ['establishment', 'park', 'point_of_interest', 'tourist_attraction']}], 'status': 'OK'}",True,51.3720484,-0.0976548,"['monday', 'tuesday', 'wednesday', 'thursday', 'friday', 'saturday']"
45,"
Crypt of St James's Spanish Place Church, 22 George St
",[],['02076306282'],"Hot food, free food, some clothing.",[],"Clothing store, Food (free), Food",Order of Malta Soup Kitchen,"[['Wednesday', ' 6:15am-7:45am'], '(breakfast club, Challoner Room, 24 Golden Square W1F 9JR)']",Wednesday, 6:15am-7:45am,"(breakfast club, Challoner Room, 24 Golden Square W1F 9JR)","{'results': [{'address_components': [{'long_name': 'The Presbytery', 'short_name': 'The Presbytery', 'types': ['premise']}, {'long_name': '24', 'short_name': '24', 'types': ['street_number']}, {'long_name': 'Golden Square', 'short_name': 'Golden Square', 'types': ['route']}, {'long_name': 'Soho', 'short_name': 'Soho', 'types': ['neighborhood', 'political']}, {'long_name': 'London', 'short_name': 'London', 'types': ['postal_town']}, {'long_name': 'Greater London', 'short_name': 'Greater London', 'types': ['administrative_area_level_2', 'political']}, {'long_name': 'England', 'short_name': 'England', 'types': ['administrative_area_level_1', 'political']}, {'long_name': 'United Kingdom', 'short_name': 'GB', 'types': ['country', 'political']}, {'long_name': 'W1F 9JR', 'short_name': 'W1F 9JR', 'types': ['postal_code']}], 'formatted_address': 'The Presbytery, 24 Golden Square, Soho, London W1F 9JR, UK', 'geometry': {'bounds': {'northeast': {'lat': 51.5114227, 'lng': -0.1375196}, 'southwest': {'lat': 51.51130449999999, 'lng': -0.1377274}}, 'location': {'lat': 51.5113687, 'lng': -0.1376092}, 'location_type': 'ROOFTOP', 'viewport': {'northeast': {'lat': 51.5127125802915, 'lng': -0.136274519708498}, 'southwest': {'lat': 51.5100146197085, 'lng': -0.138972480291502}}}, 'partial_match': True, 'place_id': 'ChIJgzkFTNQEdkgREQIUZ-mGjRs', 'types': ['premise']}], 'status': 'OK'}",True,51.5113687,-0.1376092,wednesday
45,"
Crypt of St James's Spanish Place Church, 22 George St
",[],['02076306282'],"Hot food, free food, some clothing.",[],"Clothing store, Food (free), Food",Order of Malta Soup Kitchen,"[['Thursday', ' 7:30pm-9pm'], '(café, St James’s, Spanish Place, W1U 3QY)']",Thursday, 7:30pm-9pm,"(café, St James’s, Spanish Place, W1U 3QY)","{'results': [{'address_components': [{'long_name': '22', 'short_name': '22', 'types': ['street_number']}, {'long_name': 'George Street', 'short_name': 'George St', 'types': ['route']}, {'long_name': 'Marylebone', 'short_name': 'Marylebone', 'types': ['neighborhood', 'political']}, {'long_name': 'London', 'short_name': 'London', 'types': ['postal_town']}, {'long_name': 'Greater London', 'short_name': 'Greater London', 'types': ['administrative_area_level_2', 'political']}, {'long_name': 'England', 'short_name': 'England', 'types': ['administrative_area_level_1', 'political']}, {'long_name': 'United Kingdom', 'short_name': 'GB', 'types': ['country', 'political']}, {'long_name': 'W1U 3QY', 'short_name': 'W1U 3QY', 'types': ['postal_code']}], 'formatted_address': 'Spanish Place, 22 George St, Marylebone, London W1U 3QY, UK', 'geometry': {'location': {'lat': 51.51827189999999, 'lng': -0.1523676}, 'location_type': 'ROOFTOP', 'viewport': {'northeast': {'lat': 51.5196208802915, 'lng': -0.151018619708498}, 'southwest': {'lat': 51.5169229197085, 'lng': -0.153716580291502}}}, 'place_id': 'ChIJs7PCd9IadkgRnYSBfN33VYc', 'plus_code': {'compound_code': 'GR9X+83 Marylebone, London, United Kingdom', 'global_code': '9C3XGR9X+83'}, 'types': ['church', 'establishment', 'place_of_worship', 'point_of_interest', 'tourist_attraction']}], 'status': 'OK'}",True,51.51827189999999,-0.1523676,thursday
49,"
25 Cricklewood Lane
",['NW2 1HP'],['08445001744'],"Helps the poor, needy, sick and aged, irrespective of caste, creed or colour. Serves Indian food, rice and bhaji, hot and cold drinks, chocolates and fruit.",['http://bit.ly/1K49cfn'],Food (free),Sadhu Vaswani Centre,"[['Wednesday', ' 8pm-8:30pm'], ""(Lincoln's Inn Fields)""]",Wednesday, 8pm-8:30pm,(Lincoln's Inn Fields),"{'results': [{'address_components': [{'long_name': 'London', 'short_name': 'London', 'types': ['postal_town']}, {'long_name': 'Holborn', 'short_name': 'Holborn', 'types': ['neighborhood', 'political']}, {'long_name': 'Greater London', 'short_name': 'Greater London', 'types': ['administrative_area_level_2', 'political']}, {'long_name': 'England', 'short_name': 'England', 'types': ['administrative_area_level_1', 'political']}, {'long_name': 'United Kingdom', 'short_name': 'GB', 'types': ['country', 'political']}, {'long_name': 'WC2A 3TL', 'short_name': 'WC2A 3TL', 'types': ['postal_code']}], 'formatted_address': ""Lincoln's Inn The Treasury Office, Holborn, London WC2A 3TL, UK"", 'geometry': {'location': {'lat': 51.5167429, 'lng': -0.1143896}, 'location_type': 'GEOMETRIC_CENTER', 'viewport': {'northeast': {'lat': 51.5180918802915, 'lng': -0.113040619708498}, 'southwest': {'lat': 51.5153939197085, 'lng': -0.115738580291502}}}, 'place_id': 'ChIJ2WpivUobdkgR31P_J_jBYkg', 'plus_code': {'compound_code': 'GV8P+M6 London, United Kingdom', 'global_code': '9C3XGV8P+M6'}, 'types': ['establishment', 'point_of_interest']}], 'status': 'OK'}",True,51.5167429,-0.1143896,wednesday
51,"
Yoakley Rd
",['N16 0BD'],['02088008422'],,['http://bit.ly/XX1OwW'],,Seventh Day Adventist Church (Stoke Newington),"[['Sunday', ' 7pm-7:30pm'], '(Lincoln’s Inn Fields)']",Sunday, 7pm-7:30pm,(Lincoln’s Inn Fields),"{'results': [{'address_components': [{'long_name': 'London', 'short_name': 'London', 'types': ['postal_town']}, {'long_name': 'Holborn', 'short_name': 'Holborn', 'types': ['neighborhood', 'political']}, {'long_name': 'Greater London', 'short_name': 'Greater London', 'types': ['administrative_area_level_2', 'political']}, {'long_name': 'England', 'short_name': 'England', 'types': ['administrative_area_level_1', 'political']}, {'long_name': 'United Kingdom', 'short_name': 'GB', 'types': ['country', 'political']}, {'long_name': 'WC2A 3TL', 'short_name': 'WC2A 3TL', 'types': ['postal_code']}], 'formatted_address': ""Lincoln's Inn The Treasury Office, Holborn, London WC2A 3TL, UK"", 'geometry': {'location': {'lat': 51.5167429, 'lng': -0.1143896}, 'location_type': 'GEOMETRIC_CENTER', 'viewport': {'northeast': {'lat': 51.5180918802915, 'lng': -0.113040619708498}, 'southwest': {'lat': 51.5153939197085, 'lng': -0.115738580291502}}}, 'place_id': 'ChIJ2WpivUobdkgR31P_J_jBYkg', 'plus_code': {'compound_code': 'GV8P+M6 London, United Kingdom', 'global_code': '9C3XGV8P+M6'}, 'types': ['establishment', 'point_of_interest']}], 'status': 'OK'}",True,51.5167429,-0.1143896,sunday
52,"
2 Wadsworth Road, Perivale
",['UB6 7JD'],['02085788088'],Wonderful vegetarian curries!,['https://bit.ly/2Xg2E7C'],Food (free),Shree Jalaram Mandir,"[['Tuesday', ' 6:30pm-7pm'], ""(Lincoln's Inn Fields)""]",Tuesday, 6:30pm-7pm,(Lincoln's Inn Fields),"{'results': [{'address_components': [{'long_name': 'London', 'short_name': 'London', 'types': ['postal_town']}, {'long_name': 'Holborn', 'short_name': 'Holborn', 'types': ['neighborhood', 'political']}, {'long_name': 'Greater London', 'short_name': 'Greater London', 'types': ['administrative_area_level_2', 'political']}, {'long_name': 'England', 'short_name': 'England', 'types': ['administrative_area_level_1', 'political']}, {'long_name': 'United Kingdom', 'short_name': 'GB', 'types': ['country', 'political']}, {'long_name': 'WC2A 3TL', 'short_name': 'WC2A 3TL', 'types': ['postal_code']}], 'formatted_address': ""Lincoln's Inn The Treasury Office, Holborn, London WC2A 3TL, UK"", 'geometry': {'location': {'lat': 51.5167429, 'lng': -0.1143896}, 'location_type': 'GEOMETRIC_CENTER', 'viewport': {'northeast': {'lat': 51.5180918802915, 'lng': -0.113040619708498}, 'southwest': {'lat': 51.5153939197085, 'lng': -0.115738580291502}}}, 'place_id': 'ChIJ2WpivUobdkgR31P_J_jBYkg', 'plus_code': {'compound_code': 'GV8P+M6 London, United Kingdom', 'global_code': '9C3XGV8P+M6'}, 'types': ['establishment', 'point_of_interest']}], 'status': 'OK'}",True,51.5167429,-0.1143896,tuesday
52,"
2 Wadsworth Road, Perivale
",['UB6 7JD'],['02085788088'],Wonderful vegetarian curries!,['https://bit.ly/2Xg2E7C'],Food (free),Shree Jalaram Mandir,"[['Friday', ' 6pm-6:30pm'], '(Strand, nr Charing X)']",Friday, 6pm-6:30pm,"(Strand, nr Charing X)","{'results': [{'address_components': [{'long_name': 'Strand', 'short_name': 'Strand', 'types': ['route']}, {'long_name': 'Charing Cross', 'short_name': 'Charing Cross', 'types': ['neighborhood', 'political']}, {'long_name': 'London', 'short_name': 'London', 'types': ['postal_town']}, {'long_name': 'Greater London', 'short_name': 'Greater London', 'types': ['administrative_area_level_2', 'political']}, {'long_name': 'England', 'short_name': 'England', 'types': ['administrative_area_level_1', 'political']}, {'long_name': 'United Kingdom', 'short_name': 'GB', 'types': ['country', 'political']}], 'formatted_address': 'Strand, Charing Cross, London, UK', 'geometry': {'bounds': {'northeast': {'lat': 51.5107452, 'lng': -0.1208864}, 'southwest': {'lat': 51.5076782, 'lng': -0.1270731}}, 'location': {'lat': 51.50962639999999, 'lng': -0.1233298}, 'location_type': 'GEOMETRIC_CENTER', 'viewport': {'northeast': {'lat': 51.5107452, 'lng': -0.1208864}, 'southwest': {'lat': 51.5076782, 'lng': -0.1270731}}}, 'place_id': 'EiFTdHJhbmQsIENoYXJpbmcgQ3Jvc3MsIExvbmRvbiwgVUsiLiosChQKEgnd-WI6ygR2SBFjGhihujHp6xIUChIJrStISs4EdkgRvEoozoLVlx0', 'types': ['route']}], 'status': 'OK'}",True,51.50962639999999,-0.1233298,friday
54,"
129 Malden Road, Kentish Town
",['NW5 4HS'],['02074856639'],"Outreach support out on the streets, taking food and support to their homeless guests in central London. Winter shelter referral via Simon Community outreach services and Quaker Homeless Action.",['http://bit.ly/i3Xij'],"Food (free), Clothing store",Simon Community,"[['Monday, Wednesday, Friday', ' 7:15pm-8pm'], '(tea run: 7.15 Arundel St; 7.30 Burleigh St; 7.50 Covent Gdn)']","Monday, Wednesday, Friday", 7:15pm-8pm,(tea run: 7.15 Arundel St; 7.30 Burleigh St; 7.50 Covent Gdn),"{'results': [{'address_components': [{'long_name': 'Burleigh Street', 'short_name': 'Burleigh St', 'types': ['route']}, {'long_name': 'London', 'short_name': 'London', 'types': ['postal_town']}, {'long_name': 'Greater London', 'short_name': 'Greater London', 'types': ['administrative_area_level_2', 'political']}, {'long_name': 'England', 'short_name': 'England', 'types': ['administrative_area_level_1', 'political']}, {'long_name': 'United Kingdom', 'short_name': 'GB', 'types': ['country', 'political']}, {'long_name': 'WC2E', 'short_name': 'WC2E', 'types': ['postal_code', 'postal_code_prefix']}], 'formatted_address': 'Burleigh St, London WC2E, UK', 'geometry': {'bounds': {'northeast': {'lat': 51.51174229999999, 'lng': -0.1201366}, 'southwest': {'lat': 51.5110039, 'lng': -0.1211962}}, 'location': {'lat': 51.5114561, 'lng': -0.1205616}, 'location_type': 'GEOMETRIC_CENTER', 'viewport': {'northeast': {'lat': 51.5127220802915, 'lng': -0.119317419708498}, 'southwest': {'lat': 51.5100241197085, 'lng': -0.122015380291502}}}, 'partial_match': True, 'place_id': 'ChIJ1VVNscsEdkgRjDypgdME018', 'types': ['route']}], 'status': 'OK'}",True,51.5114561,-0.1205616,"['monday', 'wednesday', 'friday']"
54,"
129 Malden Road, Kentish Town
",['NW5 4HS'],['02074856639'],"Outreach support out on the streets, taking food and support to their homeless guests in central London. Winter shelter referral via Simon Community outreach services and Quaker Homeless Action.",['http://bit.ly/i3Xij'],"Food (free), Clothing store",Simon Community,"[['Thursday', ' 8:30pm-1:30am'], ""(soup run: Duke's Rd/Euston; Temple; under W'loo Br, behind NT)""]",Thursday, 8:30pm-1:30am,"(soup run: Duke's Rd/Euston; Temple; under W'loo Br, behind NT)","{'results': [{'address_components': [{'long_name': 'Euston Station', 'short_name': 'Euston Station', 'types': ['establishment', 'point_of_interest', 'train_station', 'transit_station']}, {'long_name': 'London', 'short_name': 'London', 'types': ['postal_town']}, {'long_name': 'Greater London', 'short_name': 'Greater London', 'types': ['administrative_area_level_2', 'political']}, {'long_name': 'England', 'short_name': 'England', 'types': ['administrative_area_level_1', 'political']}, {'long_name': 'United Kingdom', 'short_name': 'GB', 'types': ['country', 'political']}, {'long_name': 'NW1 2DU', 'short_name': 'NW1 2DU', 'types': ['postal_code']}], 'formatted_address': 'Euston Station, London NW1 2DU, UK', 'geometry': {'location': {'lat': 51.528099, 'lng': -0.1331763}, 'location_type': 'GEOMETRIC_CENTER', 'viewport': {'northeast': {'lat': 51.52944798029149, 'lng': -0.131827319708498}, 'southwest': {'lat': 51.52675001970849, 'lng': -0.134525280291502}}}, 'partial_match': True, 'place_id': 'ChIJNVch-SMbdkgRqv1PBlyKQqU', 'plus_code': {'compound_code': 'GVH8+6P London, United Kingdom', 'global_code': '9C3XGVH8+6P'}, 'types': ['establishment', 'point_of_interest', 'train_station', 'transit_station']}], 'status': 'OK'}",True,51.528099,-0.1331763,thursday
57,"

",[],['07847761361'],,['http://bit.ly/2IxVIMs'],Food (free),St Ignatius's Church,"[['Saturday', ' 7:30pm-8:15pm'], ""(Lincoln's Inn Fields)""]",Saturday, 7:30pm-8:15pm,(Lincoln's Inn Fields),"{'results': [{'address_components': [{'long_name': 'London', 'short_name': 'London', 'types': ['postal_town']}, {'long_name': 'Holborn', 'short_name': 'Holborn', 'types': ['neighborhood', 'political']}, {'long_name': 'Greater London', 'short_name': 'Greater London', 'types': ['administrative_area_level_2', 'political']}, {'long_name': 'England', 'short_name': 'England', 'types': ['administrative_area_level_1', 'political']}, {'long_name': 'United Kingdom', 'short_name': 'GB', 'types': ['country', 'political']}, {'long_name': 'WC2A 3TL', 'short_name': 'WC2A 3TL', 'types': ['postal_code']}], 'formatted_address': ""Lincoln's Inn The Treasury Office, Holborn, London WC2A 3TL, UK"", 'geometry': {'location': {'lat': 51.5167429, 'lng': -0.1143896}, 'location_type': 'GEOMETRIC_CENTER', 'viewport': {'northeast': {'lat': 51.5180918802915, 'lng': -0.113040619708498}, 'southwest': {'lat': 51.5153939197085, 'lng': -0.115738580291502}}}, 'place_id': 'ChIJ2WpivUobdkgR31P_J_jBYkg', 'plus_code': {'compound_code': 'GV8P+M6 London, United Kingdom', 'global_code': '9C3XGV8P+M6'}, 'types': ['establishment', 'point_of_interest']}], 'status': 'OK'}",True,51.5167429,-0.1143896,saturday
58,"
St James Catholic Church, George St
",[],['07847761361'],"Tea, coffee, sandwiches and cakes.",['https://bit.ly/2MHNW3J'],Food (free),St James Conference of Society of St Vincent de Paul (SVP),"[['Tuesday & Friday', ' 7:45pm-8:15pm'], '(Lincoln’s Inn Fields)']",Tuesday & Friday, 7:45pm-8:15pm,(Lincoln’s Inn Fields),"{'results': [{'address_components': [{'long_name': 'London', 'short_name': 'London', 'types': ['postal_town']}, {'long_name': 'Holborn', 'short_name': 'Holborn', 'types': ['neighborhood', 'political']}, {'long_name': 'Greater London', 'short_name': 'Greater London', 'types': ['administrative_area_level_2', 'political']}, {'long_name': 'England', 'short_name': 'England', 'types': ['administrative_area_level_1', 'political']}, {'long_name': 'United Kingdom', 'short_name': 'GB', 'types': ['country', 'political']}, {'long_name': 'WC2A 3TL', 'short_name': 'WC2A 3TL', 'types': ['postal_code']}], 'formatted_address': ""Lincoln's Inn The Treasury Office, Holborn, London WC2A 3TL, UK"", 'geometry': {'location': {'lat': 51.5167429, 'lng': -0.1143896}, 'location_type': 'GEOMETRIC_CENTER', 'viewport': {'northeast': {'lat': 51.5180918802915, 'lng': -0.113040619708498}, 'southwest': {'lat': 51.5153939197085, 'lng': -0.115738580291502}}}, 'place_id': 'ChIJ2WpivUobdkgR31P_J_jBYkg', 'plus_code': {'compound_code': 'GV8P+M6 London, United Kingdom', 'global_code': '9C3XGV8P+M6'}, 'types': ['establishment', 'point_of_interest']}], 'status': 'OK'}",True,51.5167429,-0.1143896,"['tuesday', 'friday']"
65,"

",[],['02074372010'],"Sandwiches, tea, cake and clothes.",['http://bit.ly/1oGLKd6'],,St Thomas of Canterbury Church,"[['Wednesday', ' 9pm-9:30pm'], '(2nd and last of the month, Lincoln’s Inn Fields)']",Wednesday, 9pm-9:30pm,"(2nd and last of the month, Lincoln’s Inn Fields)","{'results': [{'address_components': [{'long_name': 'London', 'short_name': 'London', 'types': ['postal_town']}, {'long_name': 'Holborn', 'short_name': 'Holborn', 'types': ['neighborhood', 'political']}, {'long_name': 'Greater London', 'short_name': 'Greater London', 'types': ['administrative_area_level_2', 'political']}, {'long_name': 'England', 'short_name': 'England', 'types': ['administrative_area_level_1', 'political']}, {'long_name': 'United Kingdom', 'short_name': 'GB', 'types': ['country', 'political']}, {'long_name': 'WC2A 3TL', 'short_name': 'WC2A 3TL', 'types': ['postal_code']}], 'formatted_address': ""Lincoln's Inn The Treasury Office, Holborn, London WC2A 3TL, UK"", 'geometry': {'location': {'lat': 51.5167429, 'lng': -0.1143896}, 'location_type': 'GEOMETRIC_CENTER', 'viewport': {'northeast': {'lat': 51.5180918802915, 'lng': -0.113040619708498}, 'southwest': {'lat': 51.5153939197085, 'lng': -0.115738580291502}}}, 'place_id': 'ChIJ2WpivUobdkgR31P_J_jBYkg', 'plus_code': {'compound_code': 'GV8P+M6 London, United Kingdom', 'global_code': '9C3XGV8P+M6'}, 'types': ['establishment', 'point_of_interest']}], 'status': 'OK'}",True,51.5167429,-0.1143896,wednesday
67,"
Dalgarno Community Center, 1 Webb Close, London
",['W10 5QB'],['02076037956'],"Free hot meal, friendship and donated items. Open-ccess to anyone who is homeless or vulnerably housed, or who can't afford to pay for both food and housing.",['http://bit.ly/H7fcs'],"Accommodation/housing advice, Advocacy, Alcohol workers, Bedding, Clothing store, Drugs workers, Food (free), Outreach worker links, Outreach workers",Streetlytes,"[['Monday', ' 6pm-9pm'], '(drop-in, St Stephen’s Church, 1 Coverdale Rd, W12 8JJ)']",Monday, 6pm-9pm,"(drop-in, St Stephen’s Church, 1 Coverdale Rd, W12 8JJ)","{'results': [{'address_components': [{'long_name': '1', 'short_name': '1', 'types': ['street_number']}, {'long_name': 'Coverdale Road', 'short_name': 'Coverdale Rd', 'types': ['route']}, {'long_name': ""Shepherd's Bush"", 'short_name': ""Shepherd's Bush"", 'types': ['neighborhood', 'political']}, {'long_name': 'London', 'short_name': 'London', 'types': ['postal_town']}, {'long_name': 'Greater London', 'short_name': 'Greater London', 'types': ['administrative_area_level_2', 'political']}, {'long_name': 'England', 'short_name': 'England', 'types': ['administrative_area_level_1', 'political']}, {'long_name': 'United Kingdom', 'short_name': 'GB', 'types': ['country', 'political']}, {'long_name': 'W12 8JJ', 'short_name': 'W12 8JJ', 'types': ['postal_code']}], 'formatted_address': ""1 Coverdale Rd, Shepherd's Bush, London W12 8JJ, UK"", 'geometry': {'location': {'lat': 51.5054199, 'lng': -0.2290652}, 'location_type': 'ROOFTOP', 'viewport': {'northeast': {'lat': 51.5067688802915, 'lng': -0.227716219708498}, 'southwest': {'lat': 51.5040709197085, 'lng': -0.230414180291502}}}, 'place_id': 'ChIJ1y2ni9EPdkgRgKtLs21jE_Y', 'plus_code': {'compound_code': 'GQ4C+59 London, United Kingdom', 'global_code': '9C3XGQ4C+59'}, 'types': ['church', 'establishment', 'place_of_worship', 'point_of_interest']}], 'status': 'OK'}",True,51.5054199,-0.2290652,monday
69,"
160 Pitfield Way, Stonebridge, Middlesex
",['NW10 0PW'],['02034411335'],"Food bank & community kitchen in Brent, supporting disadvantaged individuals and families suffering food poverty in NW London. Phone or visit.",['http://bit.ly/2wLDUYb'],"Advocacy, Benefits advice, Bedding, Clothing store, Education/training, Food (free)",Sufra NW London,"[['Wednesday & Sunday', ' 12pm-3pm'], '(food bank, referral from Brent Council and other orgs)']",Wednesday & Sunday, 12pm-3pm,"(food bank, referral from Brent Council and other orgs)","{'results': [{'address_components': [{'long_name': 'Brent Civic Centre', 'short_name': 'Brent Civic Centre', 'types': ['establishment', 'point_of_interest']}, {'long_name': 'Engineers Way', 'short_name': 'Engineers Way', 'types': ['route']}, {'long_name': 'Wembley Park', 'short_name': 'Wembley Park', 'types': ['political', 'sublocality', 'sublocality_level_1']}, {'long_name': 'Wembley', 'short_name': 'Wembley', 'types': ['postal_town']}, {'long_name': 'Greater London', 'short_name': 'Greater London', 'types': ['administrative_area_level_2', 'political']}, {'long_name': 'England', 'short_name': 'England', 'types': ['administrative_area_level_1', 'political']}, {'long_name': 'United Kingdom', 'short_name': 'GB', 'types': ['country', 'political']}, {'long_name': 'HA9 0FJ', 'short_name': 'HA9 0FJ', 'types': ['postal_code']}], 'formatted_address': 'Brent Civic Centre, Engineers Way, Wembley Park, Wembley HA9 0FJ, UK', 'geometry': {'location': {'lat': 51.558913, 'lng': -0.281371}, 'location_type': 'GEOMETRIC_CENTER', 'viewport': {'northeast': {'lat': 51.56026198029151, 'lng': -0.2800220197084979}, 'southwest': {'lat': 51.55756401970851, 'lng': -0.282719980291502}}}, 'place_id': 'ChIJ9zXBzn8RdkgRLYGzT42D1XM', 'plus_code': {'compound_code': 'HP59+HF Wembley, United Kingdom', 'global_code': '9C3XHP59+HF'}, 'types': ['establishment', 'point_of_interest']}], 'status': 'OK'}",True,51.558913,-0.281371,"['wednesday', 'sunday']"
70,"
Wilkerson House, Uphall Road, Ilford
",['IG1 2JJ'],['02085533338'],Hot food and drinks. Teen Challenge is a faith-based residential rehabilitation centre with meals as part of their outreach.,['http://bit.ly/9v0xLi'],"Food (free), Outreach workers",Teen Challenge London,"[['Monday', ' 9pm-11pm'], '(Whitechapel Stn)']",Monday, 9pm-11pm,(Whitechapel Stn),"{'results': [{'address_components': [{'long_name': 'Whitechapel Station', 'short_name': 'Whitechapel Station', 'types': ['establishment', 'point_of_interest', 'train_station', 'transit_station']}, {'long_name': '277', 'short_name': '277', 'types': ['street_number']}, {'long_name': 'Whitechapel Road', 'short_name': 'Whitechapel Rd', 'types': ['route']}, {'long_name': 'Shadwell', 'short_name': 'Shadwell', 'types': ['neighborhood', 'political']}, {'long_name': 'London', 'short_name': 'London', 'types': ['postal_town']}, {'long_name': 'Greater London', 'short_name': 'Greater London', 'types': ['administrative_area_level_2', 'political']}, {'long_name': 'England', 'short_name': 'England', 'types': ['administrative_area_level_1', 'political']}, {'long_name': 'United Kingdom', 'short_name': 'GB', 'types': ['country', 'political']}, {'long_name': 'E1 1BY', 'short_name': 'E1 1BY', 'types': ['postal_code']}], 'formatted_address': 'Whitechapel Station, 277 Whitechapel Rd, Shadwell, London E1 1BY, UK', 'geometry': {'location': {'lat': 51.5194973, 'lng': -0.0612018}, 'location_type': 'ROOFTOP', 'viewport': {'northeast': {'lat': 51.52084628029149, 'lng': -0.05985281970849797}, 'southwest': {'lat': 51.5181483197085, 'lng': -0.06255078029150203}}}, 'place_id': 'ChIJM1I7780cdkgRHyeKVVMVE_0', 'plus_code': {'compound_code': 'GW9Q+QG Shadwell, London, United Kingdom', 'global_code': '9C3XGW9Q+QG'}, 'types': ['establishment', 'point_of_interest', 'train_station', 'transit_station']}], 'status': 'OK'}",True,51.5194973,-0.0612018,monday
70,"
Wilkerson House, Uphall Road, Ilford
",['IG1 2JJ'],['02085533338'],Hot food and drinks. Teen Challenge is a faith-based residential rehabilitation centre with meals as part of their outreach.,['http://bit.ly/9v0xLi'],"Food (free), Outreach workers",Teen Challenge London,"[['Tuesday', ' 9pm-11:30pm'], '(Mare St, Hackney Central Stn)']",Tuesday, 9pm-11:30pm,"(Mare St, Hackney Central Stn)","{'results': [{'address_components': [{'long_name': 'Hackney Central Mare Street (Stop G)', 'short_name': 'Hackney Central Mare Street (Stop G)', 'types': ['bus_station', 'establishment', 'point_of_interest', 'transit_station']}, {'long_name': 'London', 'short_name': 'London', 'types': ['postal_town']}, {'long_name': 'Greater London', 'short_name': 'Greater London', 'types': ['administrative_area_level_2', 'political']}, {'long_name': 'England', 'short_name': 'England', 'types': ['administrative_area_level_1', 'political']}, {'long_name': 'United Kingdom', 'short_name': 'GB', 'types': ['country', 'political']}, {'long_name': 'E8 1BP', 'short_name': 'E8 1BP', 'types': ['postal_code']}], 'formatted_address': 'Hackney Central Mare Street (Stop G), London E8 1BP, UK', 'geometry': {'location': {'lat': 51.5467178, 'lng': -0.0557024}, 'location_type': 'GEOMETRIC_CENTER', 'viewport': {'northeast': {'lat': 51.5480667802915, 'lng': -0.05435341970849797}, 'southwest': {'lat': 51.5453688197085, 'lng': -0.05705138029150204}}}, 'partial_match': True, 'place_id': 'ChIJK7SHKvscdkgRBrqYotcr9Nw', 'plus_code': {'compound_code': 'GWWV+MP Kingsland, London, United Kingdom', 'global_code': '9C3XGWWV+MP'}, 'types': ['bus_station', 'establishment', 'point_of_interest', 'transit_station']}], 'status': 'OK'}",True,51.5467178,-0.0557024,tuesday
70,"
Wilkerson House, Uphall Road, Ilford
",['IG1 2JJ'],['02085533338'],Hot food and drinks. Teen Challenge is a faith-based residential rehabilitation centre with meals as part of their outreach.,['http://bit.ly/9v0xLi'],"Food (free), Outreach workers",Teen Challenge London,"[['Wednesday', ' 9am-11:30pm'], '(Windrush Sq, opp Ritzy Cinema, Brixton)']",Wednesday, 9am-11:30pm,"(Windrush Sq, opp Ritzy Cinema, Brixton)","{'results': [{'address_components': [{'long_name': 'London', 'short_name': 'London', 'types': ['locality', 'political']}, {'long_name': 'Brixton', 'short_name': 'Brixton', 'types': ['postal_town']}, {'long_name': 'Greater London', 'short_name': 'Greater London', 'types': ['administrative_area_level_2', 'political']}, {'long_name': 'England', 'short_name': 'England', 'types': ['administrative_area_level_1', 'political']}, {'long_name': 'United Kingdom', 'short_name': 'GB', 'types': ['country', 'political']}, {'long_name': 'SW2 1EF', 'short_name': 'SW2 1EF', 'types': ['postal_code']}], 'formatted_address': '1 Windrush Square, London, Brixton SW2 1EF, UK', 'geometry': {'location': {'lat': 51.4604232, 'lng': -0.1147149}, 'location_type': 'GEOMETRIC_CENTER', 'viewport': {'northeast': {'lat': 51.4617721802915, 'lng': -0.113365919708498}, 'southwest': {'lat': 51.4590742197085, 'lng': -0.116063880291502}}}, 'place_id': 'ChIJ7-ABRGgEdkgR3rhDNehKG2c', 'plus_code': {'compound_code': 'FV6P+54 Brixton, London, United Kingdom', 'global_code': '9C3XFV6P+54'}, 'types': ['establishment', 'museum', 'point_of_interest', 'tourist_attraction']}], 'status': 'OK'}",True,51.4604232,-0.1147149,wednesday
70,"
Wilkerson House, Uphall Road, Ilford
",['IG1 2JJ'],['02085533338'],Hot food and drinks. Teen Challenge is a faith-based residential rehabilitation centre with meals as part of their outreach.,['http://bit.ly/9v0xLi'],"Food (free), Outreach workers",Teen Challenge London,"[['Thursday', ' 9pm-10:30pm'], '(Ealing Broadway Stn)']",Thursday, 9pm-10:30pm,(Ealing Broadway Stn),"{'results': [{'address_components': [{'long_name': 'Ealing Broadway station', 'short_name': 'Ealing Broadway station', 'types': ['establishment', 'point_of_interest', 'transit_station']}, {'long_name': 'Ealing', 'short_name': 'Ealing', 'types': ['neighborhood', 'political']}, {'long_name': 'London', 'short_name': 'London', 'types': ['postal_town']}, {'long_name': 'Greater London', 'short_name': 'Greater London', 'types': ['administrative_area_level_2', 'political']}, {'long_name': 'England', 'short_name': 'England', 'types': ['administrative_area_level_1', 'political']}, {'long_name': 'United Kingdom', 'short_name': 'GB', 'types': ['country', 'political']}, {'long_name': 'W5', 'short_name': 'W5', 'types': ['postal_code', 'postal_code_prefix']}], 'formatted_address': 'Ealing Broadway station, Ealing, London W5, UK', 'geometry': {'location': {'lat': 51.5149011, 'lng': -0.3019246}, 'location_type': 'GEOMETRIC_CENTER', 'viewport': {'northeast': {'lat': 51.51625008029149, 'lng': -0.300575619708498}, 'southwest': {'lat': 51.5135521197085, 'lng': -0.3032735802915021}}}, 'place_id': 'ChIJwdW8dgoSdkgRZmQfLJO4tac', 'plus_code': {'compound_code': 'GM7X+X6 Ealing, London, United Kingdom', 'global_code': '9C3XGM7X+X6'}, 'types': ['establishment', 'point_of_interest', 'transit_station']}], 'status': 'OK'}",True,51.5149011,-0.3019246,thursday
70,"
Wilkerson House, Uphall Road, Ilford
",['IG1 2JJ'],['02085533338'],Hot food and drinks. Teen Challenge is a faith-based residential rehabilitation centre with meals as part of their outreach.,['http://bit.ly/9v0xLi'],"Food (free), Outreach workers",Teen Challenge London,"[['Saturday', ' 9pm-11:30pm'], '(Central Baptist Church, Stratford)']",Saturday, 9pm-11:30pm,"(Central Baptist Church, Stratford)","{'results': [{'address_components': [{'long_name': 'The Grove', 'short_name': 'The Grove', 'types': ['route']}, {'long_name': 'London', 'short_name': 'London', 'types': ['postal_town']}, {'long_name': 'Greater London', 'short_name': 'Greater London', 'types': ['administrative_area_level_2', 'political']}, {'long_name': 'England', 'short_name': 'England', 'types': ['administrative_area_level_1', 'political']}, {'long_name': 'United Kingdom', 'short_name': 'GB', 'types': ['country', 'political']}, {'long_name': 'E15 1EN', 'short_name': 'E15 1EN', 'types': ['postal_code']}], 'formatted_address': 'The Grove, London E15 1EN, UK', 'geometry': {'location': {'lat': 51.5450666, 'lng': 0.0047985}, 'location_type': 'GEOMETRIC_CENTER', 'viewport': {'northeast': {'lat': 51.5464155802915, 'lng': 0.006147480291502029}, 'southwest': {'lat': 51.5437176197085, 'lng': 0.00344951970849797}}}, 'place_id': 'ChIJcdO8xoin2EcRSBMl6oGixTA', 'plus_code': {'compound_code': 'G2W3+2W Maryland, London, United Kingdom', 'global_code': '9F32G2W3+2W'}, 'types': ['church', 'establishment', 'place_of_worship', 'point_of_interest']}], 'status': 'OK'}",True,51.5450666,0.0047985,saturday
